{"type": "FeatureCollection", "features": [ {"type": "Feature", "properties": {"norad_id": 28649, "name": "IRS-P5 (CARTOSAT-1)", "group": "resource", "lat": -41.22304289910766, "lon": 30.21942664140356, "alt_km": 603.2207827408547, "timestamp": "2025-12-23T14:49:08.985911+00:00", "meta": {"OBJECT_NAME": "IRS-P5 (CARTOSAT-1)", "OBJECT_ID": "2005-017A", "EPOCH": "2025-12-23T02:06:56.284416", "MEAN_MOTION": 14.90437763, "ECCENTRICITY": 6.18e-05, "INCLINATION": 97.5483, "RA_OF_ASC_NODE": 23.0421, "ARG_OF_PERICENTER": 56.4975, "MEAN_ANOMALY": 303.6302, "EPHEMERIS_TYPE": 0, "CLASSIFICATION_TYPE": "U", "NORAD_CAT_ID": 28649, "ELEMENT_SET_NO": 999, "REV_AT_EPOCH": 11758, "BSTAR": 0.00016366764, "MEAN_MOTION_DOT": 1.543e-05, "MEAN_MOTION_DDOT": 0}, "tle": {"line1": "1 28649U 05017A   25357.08815144  .00001543  00000+0  16367-3 0  9993", "line2": "2 28649  97.5483  23.0421 0000618  56.4975 303.6302 14.90437763117583"}}, "geometry": {"type": "Point", "coordinates": [30.21942664140356, -41.22304289910766]}}, {"type": "Feature", "properties": {"norad_id": 28893, "name": "SINAH 1", "group": "resource", "lat": -2.284502197288507, "lon": 126.53612651365609, "alt_km": 686.9491679116181, "timestamp": "2025-12-23T14:49:08.985924+00:00", "meta": {"OBJECT_NAME": "SINAH 1", "OBJECT_ID": "2005-043D", "EPOCH": "2025-12-23T06:37:40.577376", "MEAN_MOTION": 14.63973022, "ECCENTRICITY": 0.00156955, "INCLINATION": 98.2609, "RA_OF_ASC_NODE": 125.8619, "ARG_OF_PERICENTER": 106.2589, "MEAN_ANOMALY": 254.0341, "EPHEMERIS_TYPE": 0, "CLASSIFICATION_TYPE": "U", "NORAD_CAT_ID": 28893, "ELEMENT_SET_NO": 999, "REV_AT_EPOCH": 7478, "BSTAR": 8.7326229e-05, "MEAN_MOTION_DOT": 4.09e-06, "MEAN_MOTION_DDOT": 0}, "tle": {"line1": "1 28893U 05043D   25357.27616409  .00000409  00000+0  87326-4 0  9991", "line2": "2 28893  98.2609 125.8619 0015695 106.2589 254.0341 14.63973022 74787"}}, "geometry": {"type": "Point", "coordinates": [126.53612651365609, -2.284502197288507]}}, {"type": "Feature", "properties": {"norad_id": 29079, "name": "EROS B", "group": "resource", "lat": -11.460140293988358, "lon": -66.76247802066977, "alt_km": 359.77556548481334, "timestamp": "2025-12-23T14:49:08.985936+00:00", "meta": {"OBJECT_NAME": "EROS B", "OBJECT_ID": "2006-014A", "EPOCH": "2025-12-23T07:53:40.633728", "MEAN_MOTION": 15.71626082, "ECCENTRICITY": 0.00040283, "INCLINATION": 97.3464, "RA_OF_ASC_NODE": 114.4326, "ARG_OF_PERICENTER": 311.2256, "MEAN_ANOMALY": 48.8659, "EPHEMERIS_TYPE": 0, "CLASSIFICATION_TYPE": "U", "NORAD_CAT_ID": 29079, "ELEMENT_SET_NO": 999, "REV_AT_EPOCH": 9246, "BSTAR": 0.0013773708, "MEAN_MOTION_DOT": 0.0018027, "MEAN_MOTION_DDOT": 0}, "tle": {"line1": "1 29079U 06014A   25357.32894252  .00180270  00000+0  13774-2 0  9996", "line2": "2 29079  97.3464 114.4326 0004028 311.2256  48.8659 15.71626082 92466"}}, "geometry": {"type": "Point", "coordinates": [-66.76247802066977, -11.460140293988358]}}, {"type": "Feature", "properties": {"norad_id": 29228, "name": "RESURS-DK 1", "group": "resource", "lat": 25.152251891775816, "lon": 83.61021497245943, "alt_km": 531.6586787406477, "timestamp": "2025-12-23T14:49:08.985949+00:00", "meta": {"OBJECT_NAME": "RESURS-DK 1", "OBJECT_ID": "2006-021A", "EPOCH": "2025-12-22T14:53:15.203040", "MEAN_MOTION": 15.12212397, "ECCENTRICITY": 0.00068623, "INCLINATION": 69.9337, "RA_OF_ASC_NODE": 76.3031, "ARG_OF_PERICENTER": 250.1947, "MEAN_ANOMALY": 109.8479, "EPHEMERIS_TYPE": 0, "CLASSIFICATION_TYPE": "U", "NORAD_CAT_ID": 29228, "ELEMENT_SET_NO": 999, "REV_AT_EPOCH": 7587, "BSTAR": 0.00016259773, "MEAN_MOTION_DOT": 2.709e-05, "MEAN_MOTION_DDOT": 0}, "tle": {"line1": "1 29228U 06021A   25356.62031485  .00002709  00000+0  16260-3 0  9997", "line2": "2 29228  69.9337  76.3031 0006862 250.1947 109.8479 15.12212397 75870"}}, "geometry": {"type": "Point", "coordinates": [83.61021497245943, 25.152251891775816]}}, {"type": "Feature", "properties": {"norad_id": 29268, "name": "ARIRANG-2 (KOMPSAT-2)", "group": "resource", "lat": -74.18229636047218, "lon": -145.39991061201076, "alt_km": 676.9325113398163, "timestamp": "2025-12-23T14:49:08.985962+00:00", "meta": {"OBJECT_NAME": "ARIRANG-2 (KOMPSAT-2)", "OBJECT_ID": "2006-031A", "EPOCH": "2025-12-23T07:32:09.236256", "MEAN_MOTION": 14.64501358, "ECCENTRICITY": 0.00131296, "INCLINATION": 97.8253, "RA_OF_ASC_NODE": 185.2711, "ARG_OF_PERICENTER": 272.7512, "MEAN_ANOMALY": 212.0459, "EPHEMERIS_TYPE": 0, "CLASSIFICATION_TYPE": "U", "NORAD_CAT_ID": 29268, "ELEMENT_SET_NO": 999, "REV_AT_EPOCH": 3573, "BSTAR": 3.0448113e-05, "MEAN_MOTION_DOT": 1.16e-06, "MEAN_MOTION_DDOT": 0}, "tle": {"line1": "1 29268U 06031A   25357.31399579  .00000116  00000+0  30448-4 0  9995", "line2": "2 29268  97.8253 185.2711 0013129 272.7512 212.0459 14.64501358 35738"}}, "geometry": {"type": "Point", "coordinates": [-145.39991061201076, -74.18229636047218]}}, {"type": "Feature", "properties": {"norad_id": 29709, "name": "LAPAN-TUBSAT", "group": "resource", "lat": -32.9711420621393, "lon": -6.684205711475606, "alt_km": 615.1714413971949, "timestamp": "2025-12-23T14:49:08.985975+00:00", "meta": {"OBJECT_NAME": "LAPAN-TUBSAT", "OBJECT_ID": "2007-001A", "EPOCH": "2025-12-23T06:53:12.442848", "MEAN_MOTION": 14.85688572, "ECCENTRICITY": 0.00133595, "INCLINATION": 98.1259, "RA_OF_ASC_NODE": 347.6604, "ARG_OF_PERICENTER": 42.924, "MEAN_ANOMALY": 317.3014, "EPHEMERIS_TYPE": 0, "CLASSIFICATION_TYPE": "U", "NORAD_CAT_ID": 29709, "ELEMENT_SET_NO": 999, "REV_AT_EPOCH": 2503, "BSTAR": 0.00015946589, "MEAN_MOTION_DOT": 1.327e-05, "MEAN_MOTION_DDOT": 0}, "tle": {"line1": "1 29709U 07001A   25357.28694957  .00001327  00000+0  15947-3 0  9998", "line2": "2 29709  98.1259 347.6604 0013359  42.9240 317.3014 14.85688572 25038"}}, "geometry": {"type": "Point", "coordinates": [-6.684205711475606, -32.9711420621393]}}, {"type": "Feature", "properties": {"norad_id": 31113, "name": "HAIYANG-1B", "group": "resource", "lat": -51.92400581510451, "lon": 150.66441199440206, "alt_km": 802.279144490808, "timestamp": "2025-12-23T14:49:08.985986+00:00", "meta": {"OBJECT_NAME": "HAIYANG-1B", "OBJECT_ID": "2007-010A", "EPOCH": "2025-12-23T05:20:38.753664", "MEAN_MOTION": 14.30968284, "ECCENTRICITY": 0.00137103, "INCLINATION": 98.3327, "RA_OF_ASC_NODE": 341.0682, "ARG_OF_PERICENTER": 8.0626, "MEAN_ANOMALY": 352.0775, "EPHEMERIS_TYPE": 0, "CLASSIFICATION_TYPE": "U", "NORAD_CAT_ID": 31113, "ELEMENT_SET_NO": 999, "REV_AT_EPOCH": 97546, "BSTAR": 5.0548299e-05, "MEAN_MOTION_DOT": 9.1e-07, "MEAN_MOTION_DDOT": 0}, "tle": {"line1": "1 31113U 07010A   25357.22267076  .00000091  00000+0  50548-4 0  9996", "line2": "2 31113  98.3327 341.0682 0013710   8.0626 352.0775 14.30968284975466"}}, "geometry": {"type": "Point", "coordinates": [150.66441199440206, -51.92400581510451]}}, {"type": "Feature", "properties": {"norad_id": 31598, "name": "COSMO-SKYMED 1", "group": "resource", "lat": -40.882488313822876, "lon": -170.02175998345064, "alt_km": 586.8373185592382, "timestamp": "2025-12-23T14:49:08.985999+00:00", "meta": {"OBJECT_NAME": "COSMO-SKYMED 1", "OBJECT_ID": "2007-023A", "EPOCH": "2025-12-23T06:58:35.496768", "MEAN_MOTION": 14.95842337, "ECCENTRICITY": 0.00014289, "INCLINATION": 97.884, "RA_OF_ASC_NODE": 182.7596, "ARG_OF_PERICENTER": 79.8006, "MEAN_ANOMALY": 280.3375, "EPHEMERIS_TYPE": 0, "CLASSIFICATION_TYPE": "U", "NORAD_CAT_ID": 31598, "ELEMENT_SET_NO": 999, "REV_AT_EPOCH": 348, "BSTAR": 0.0003005743, "MEAN_MOTION_DOT": 3.299e-05, "MEAN_MOTION_DDOT": 0}, "tle": {"line1": "1 31598U 07023A   25357.29068862  .00003299  00000+0  30057-3 0  9991", "line2": "2 31598  97.8840 182.7596 0001428  79.8006 280.3375 14.95842337  3486"}}, "geometry": {"type": "Point", "coordinates": [-170.02175998345064, -40.882488313822876]}}, {"type": "Feature", "properties": {"norad_id": 31698, "name": "TERRASAR-X", "group": "resource", "lat": 12.652843993746075, "lon": -175.47791603927692, "alt_km": 509.4947579904574, "timestamp": "2025-12-23T14:49:08.986012+00:00", "meta": {"OBJECT_NAME": "TERRASAR-X", "OBJECT_ID": "2007-026A", "EPOCH": "2025-12-22T11:12:42.874560", "MEAN_MOTION": 15.19156937, "ECCENTRICITY": 0.00019029, "INCLINATION": 97.4451, "RA_OF_ASC_NODE": 1.7062, "ARG_OF_PERICENTER": 89.1914, "MEAN_ANOMALY": 270.9539, "EPHEMERIS_TYPE": 0, "CLASSIFICATION_TYPE": "U", "NORAD_CAT_ID": 31698, "ELEMENT_SET_NO": 999, "REV_AT_EPOCH": 2639, "BSTAR": 3.1918703e-05, "MEAN_MOTION_DOT": 6.03e-06, "MEAN_MOTION_DDOT": 0}, "tle": {"line1": "1 31698U 07026A   25356.46716290  .00000603  00000+0  31919-4 0  9993", "line2": "2 31698  97.4451   1.7062 0001902  89.1914 270.9539 15.19156937 26391"}}, "geometry": {"type": "Point", "coordinates": [-175.47791603927692, 12.652843993746075]}}, {"type": "Feature", "properties": {"norad_id": 32060, "name": "WORLDVIEW-1 (WV-1)", "group": "resource", "lat": 15.078211998917455, "lon": 112.93858762916011, "alt_km": 492.7591196629319, "timestamp": "2025-12-23T14:49:08.986042+00:00", "meta": {"OBJECT_NAME": "WORLDVIEW-1 (WV-1)", "OBJECT_ID": "2007-041A", "EPOCH": "2025-12-23T05:17:50.368704", "MEAN_MOTION": 15.23921594, "ECCENTRICITY": 0.00032781, "INCLINATION": 97.3827, "RA_OF_ASC_NODE": 114.5499, "ARG_OF_PERICENTER": 1.9713, "MEAN_ANOMALY": 358.1537, "EPHEMERIS_TYPE": 0, "CLASSIFICATION_TYPE": "U", "NORAD_CAT_ID": 32060, "ELEMENT_SET_NO": 999, "REV_AT_EPOCH": 1607, "BSTAR": 0.00036124565, "MEAN_MOTION_DOT": 8.663e-05, "MEAN_MOTION_DDOT": 0}, "tle": {"line1": "1 32060U 07041A   25357.22072186  .00008663  00000+0  36125-3 0  9995", "line2": "2 32060  97.3827 114.5499 0003278   1.9713 358.1537 15.23921594 16070"}}, "geometry": {"type": "Point", "coordinates": [112.93858762916011, 15.078211998917455]}}]}